QIANFAN-105             
1 66047U 25233Q   25335.69367316  .00000171  00000+0  10396-3 0  9997
2 66047  89.0043  63.3237 0016990  72.7104 287.5933 14.01575459  6441
QIANFAN-106             
1 66048U 25233R   25335.71823729  .00000167  00000+0  10779-3 0  9996
2 66048  88.9959  63.3519 0016574  71.8203 288.4778 13.97938603  6442
QIANFAN-107             
1 66049U 25233S   25335.69773580  .00000168  00000+0  10464-3 0  9995
2 66049  88.9908  63.3572 0014273  88.6626 271.6188 13.99908345  6446
QIANFAN-108             
1 66050U 25233T   25335.56342492  .00000204  00000+0  13140-3 0  9992
2 66050  88.9954  63.3676 0017555  77.9818 282.3326 13.99011551  6429
